     2.100          NAVIGATION                              RINEX VERSION / TYPE
fic2rin                                 06/26/2016 00:12:08 PGM / RUN BY / DATE
                                                            END OF HEADER
16 16  6 25  2  0  0.0 -.872975215316D-05  .238742359215D-11  .000000000000D+00
     .290000000000D+02  .855625000000D+02  .367193866527D-08  .752138763290D+00
     .453740358353D-05  .871964369435D-02  .701844692230D-05  .515378134346D+04
     .525600000000D+06 -.428408384323D-07  .159173187386D+01  .238418579102D-06
     .990595557138D+00  .260218750000D+03  .395653070253D+00 -.782175437889D-08
     .278940190407D-09  .100000000000D+01  .190200000000D+04  .000000000000D+00
     .240000000000D+01  .000000000000D+00 -.107102096081D-07  .290000000000D+02
     .518406000000D+06  .400000000000D+01
17 16  6 25  2  0  0.0 -.204002484679D-03  .113686837722D-12  .000000000000D+00
     .640000000000D+02 -.298125000000D+02  .455768984608D-08 -.951343614480D-01
    -.168941915035D-05  .109871922759D-01  .329688191414D-05  .515370750999D+04
     .525600000000D+06 -.147148966789D-06  .261328434142D+01  .119209289551D-06
     .976815351595D+00  .328625000000D+03 -.192717172751D+01 -.849892544293D-08
     .107147320259D-09  .100000000000D+01  .190200000000D+04  .000000000000D+00
     .340000000000D+01  .000000000000D+00 -.107102096081D-07  .640000000000D+02
     .518406000000D+06  .400000000000D+01
18 16  6 25  2  0  0.0  .529966317117D-03  .386535248253D-11  .000000000000D+00
     .580000000000D+02  .968750000000D+01  .546522764867D-08  .146157477230D+01
     .299885869026D-06  .172552495496D-01  .972859561443D-05  .515369694138D+04
     .525600000000D+06 -.376254320145D-06 -.165515518623D+01 -.322237610817D-06
     .924668252739D+00  .179062500000D+03 -.187575526700D+01 -.851892627605D-08
     .307155651409D-09  .100000000000D+01  .190200000000D+04  .000000000000D+00
     .240000000000D+01  .000000000000D+00 -.121071934700D-07  .580000000000D+02
     .518406000000D+06  .400000000000D+01
19 16  6 25  2  0  0.0 -.525332987309D-03  .227373675443D-12  .000000000000D+00
     .100000000000D+03 -.405000000000D+02  .449090134978D-08  .302406350916D+01
    -.221282243729D-05  .107787570450D-01  .293739140034D-05  .515362375450D+04
     .525600000000D+06 -.912696123123D-07  .266198667635D+01 -.147148966789D-06
     .973961390064D+00  .331406250000D+03  .800090078506D+00 -.814069623553D-08
     .603596570791D-10  .100000000000D+01  .190200000000D+04  .000000000000D+00
     .240000000000D+01  .000000000000D+00 -.149011611938D-07  .100000000000D+03
     .518406000000D+06  .400000000000D+01
20 16  6 25  2  0  0.0  .420442316681D-03  .227373675443D-11  .000000000000D+00
     .790000000000D+02  .120312500000D+02  .540308220292D-08 -.911449620484D+00
     .683590769768D-06  .455315143336D-02  .968575477600D-05  .515375691414D+04
     .525600000000D+06 -.819563865662D-07 -.170694215562D+01  .391155481339D-07
     .925967916475D+00  .174406250000D+03  .138756036166D+01 -.842213653008D-08
     .266082511976D-09  .100000000000D+01  .190200000000D+04  .000000000000D+00
     .240000000000D+01  .000000000000D+00 -.838190317154D-08  .790000000000D+02
     .518406000000D+06  .400000000000D+01
21 16  6 25  2  0  0.0 -.526738818735D-03 -.102318153949D-11  .000000000000D+00
     .102000000000D+03 -.102906250000D+03  .492163357722D-08  .236530185012D+01
    -.546313822269D-05  .233537063468D-01  .844150781631D-05  .515360201454D+04
     .525600000000D+06  .210478901863D-06 -.269693932806D+01 -.281259417534D-06
     .936917100507D+00  .202562500000D+03 -.178132829666D+01 -.787318509262D-08
    -.101789954246D-09  .100000000000D+01  .190200000000D+04  .000000000000D+00
     .240000000000D+01  .000000000000D+00 -.102445483208D-07  .102000000000D+03
     .518406000000D+06  .400000000000D+01
22 16  6 25  2  0  0.0  .312190968543D-03 -.886757334229D-11  .000000000000D+00
     .590000000000D+02  .306250000000D+02  .553773066871D-08 -.552231982062D+00
     .156834721565D-05  .767507287674D-02  .992976129055D-05  .515379479599D+04
     .525600000000D+06 -.104308128357D-06 -.165456374601D+01  .838190317154D-07
     .922578064645D+00  .166593750000D+03 -.190109220645D+01 -.859714381983D-08
     .377872882779D-09  .100000000000D+01  .190200000000D+04  .000000000000D+00
     .240000000000D+01  .000000000000D+00 -.176951289177D-07  .590000000000D+02
     .518406000000D+06  .400000000000D+01
23 16  6 25  2  0  0.0 -.179522670805D-03 -.159161572810D-11  .000000000000D+00
     .730000000000D+02  .703125000000D+01  .518807324693D-08 -.140666662915D+01
     .279396772385D-06  .110574609134D-01  .518001616001D-05  .515364916992D+04
     .525600000000D+06  .191852450371D-06 -.576692481442D+00 -.149011611938D-06
     .945785519100D+00  .269437500000D+03 -.256045661846D+01 -.831463205208D-08
    -.168578450541D-09  .100000000000D+01  .190200000000D+04  .000000000000D+00
     .240000000000D+01  .000000000000D+00 -.200234353542D-07  .730000000000D+02
     .518406000000D+06  .400000000000D+01
24 16  6 25  2  0  0.0 -.191088765860D-04 -.568434188608D-12  .000000000000D+00
     .730000000000D+02  .750000000000D+00  .450411618595D-08 -.195434606867D+01
     .137835741043D-06  .443256460130D-02  .937655568123D-05  .515361400414D+04
     .525600000000D+06 -.134110450745D-06  .448494219870D+00 -.875443220139D-07
     .949480528327D+00  .194656250000D+03  .411081478302D+00 -.794997400547D-08
    -.404659712844D-09  .100000000000D+01  .190200000000D+04  .000000000000D+00
     .240000000000D+01  .000000000000D+00  .232830643654D-08  .730000000000D+02
     .518406000000D+06  .400000000000D+01
25 16  6 25  2  0  0.0 -.196460168809D-03 -.704858393874D-11  .000000000000D+00
     .670000000000D+02  .779687500000D+02  .387480425829D-08  .224990492050D+01
     .409223139286D-05  .563151249662D-02  .729598104954D-05  .515374086571D+04
     .525600000000D+06 -.651925802231D-07  .152166013864D+01 -.113621354103D-06
     .978311997250D+00  .247125000000D+03  .789633331718D+00 -.787568519676D-08
     .310727228751D-09  .100000000000D+01  .190200000000D+04  .000000000000D+00
     .240000000000D+01  .000000000000D+00  .558793544769D-08  .670000000000D+02
     .518406000000D+06  .400000000000D+01
26 16  6 25  2  0  0.0 -.405476894230D-03 -.108002495836D-10  .000000000000D+00
     .490000000000D+02  .879687500000D+02  .434160941689D-08  .144404784630D+01
     .454671680927D-05  .101202842779D-02  .699423253536D-05  .515378026199D+04
     .525600000000D+06 -.633299350739D-07  .151218429159D+01  .372529029846D-08
     .960276916417D+00  .245031250000D+03  .196575024802D+00 -.806319300721D-08
     .252510518077D-09  .100000000000D+01  .190200000000D+04  .000000000000D+00
     .240000000000D+01  .000000000000D+00  .698491930962D-08  .490000000000D+02
     .518406000000D+06  .400000000000D+01
27 16  6 25  2  0  0.0  .107306521386D-03  .432009983342D-11  .000000000000D+00
     .660000000000D+02 -.329687500000D+02  .460519182472D-08 -.105156295336D+00
    -.157020986080D-05  .374218693469D-02  .267289578915D-05  .515364044571D+04
     .525600000000D+06  .726431608200D-07  .256321867509D+01 -.521540641785D-07
     .971731636660D+00  .334500000000D+03  .313878815478D+00 -.838963517627D-08
     .105361531588D-09  .100000000000D+01  .190200000000D+04  .000000000000D+00
     .240000000000D+01  .000000000000D+00  .139698386192D-08  .660000000000D+02
     .518406000000D+06  .400000000000D+01
28 16  6 25  2  0  0.0  .532562378794D-03  .272848410532D-11  .000000000000D+00
     .890000000000D+02  .792812500000D+02  .381551607442D-08  .710808486564D+00
     .411085784435D-05  .197319199797D-01  .777840614319D-05  .515363281250D+04
     .525600000000D+06 -.216066837311D-06  .159665035805D+01 -.119209289551D-06
     .989306618054D+00  .245937500000D+03 -.161457643978D+01 -.821141346690D-08
     .248224625266D-09  .100000000000D+01  .190200000000D+04  .000000000000D+00
     .240000000000D+01  .000000000000D+00 -.111758708954D-07  .890000000000D+02
     .518406000000D+06  .400000000000D+01
30 16  6 25  2  0  0.0  .135412439704D-03  .261479726760D-11  .000000000000D+00
     .800000000000D+02  .128437500000D+02  .451733102211D-08 -.280298957021D+01
     .674277544022D-06  .221803341992D-02  .105164945126D-04  .515359343147D+04
     .525600000000D+06  .186264514923D-08  .539855332307D+00 -.558793544769D-07
     .952165952917D+00  .171343750000D+03  .305632311155D+01 -.802069123684D-08
    -.435018120251D-09  .100000000000D+01  .190200000000D+04  .000000000000D+00
     .240000000000D+01  .000000000000D+00  .325962901115D-08  .800000000000D+02
     .518406000000D+06  .400000000000D+01
31 16  6 25  2  0  0.0  .262202695012D-03 -.193267624127D-11  .000000000000D+00
     .630000000000D+02  .159062500000D+02  .402481050666D-08 -.305234988749D+01
     .759959220886D-06  .816428766120D-02  .100955367088D-04  .515377188492D+04
     .525600000000D+06 -.745058059692D-08  .505605810226D+00  .111758708954D-06
     .971208380122D+00  .192343750000D+03 -.395702297446D+00 -.766674792225D-08
    -.453590322429D-09  .100000000000D+01  .190200000000D+04  .000000000000D+00
     .240000000000D+01  .000000000000D+00 -.135041773319D-07  .630000000000D+02
     .518406000000D+06  .400000000000D+01
32 16  6 25  2  0  0.0 -.322111882269D-04 -.875388650456D-11  .000000000000D+00
     .350000000000D+02  .111562500000D+02  .496199240119D-08  .252781206380D+00
     .642612576485D-06  .519330264069D-03  .510364770889D-05  .515361350822D+04
     .525600000000D+06  .353902578354D-07 -.580142925876D+00 -.260770320892D-07
     .959440276493D+00  .279093750000D+03 -.232660469866D+01 -.831641784076D-08
    -.264653881039D-09  .100000000000D+01  .190200000000D+04  .000000000000D+00
     .240000000000D+01  .000000000000D+00  .465661287308D-09  .350000000000D+02
     .518406000000D+06  .400000000000D+01
